ONEWEB-0159             
1 48062U 21025W   26143.50940602  .00000102  00000+0  24552-3 0  9995
2 48062  87.8952 325.1288 0001602  95.6312 264.5000 13.13469115250362
ONEWEB-0164             
1 48063U 21025X   26143.49077708  .00000118  00000+0  28763-3 0  9997
2 48063  87.8950 325.1390 0001817  88.2892 271.8445 13.13469833250343
ONEWEB-0167             
1 48064U 21025Y   26143.51871829 -.00000111  00000+0 -33821-3 0  9993
2 48064  87.8941 325.1453 0001151  88.2765 271.8496 13.13470764250334
ONEWEB-0166             
1 48065U 21025Z   26143.54157001 -.00000181  00000+0 -53016-3 0  9991
2 48065  87.8951 325.1100 0001863  97.3666 262.7675 13.13470196250412
ONEWEB-0151             
1 48066U 21025AA  26143.54324676 -.00000210  00000+0 -60922-3 0  9993
2 48066  87.8939 325.1288 0001646  90.0763 270.0555 13.13469068250351
ONEWEB-0170             
1 48067U 21025AB  26143.47553910 -.00000166  00000+0 -48976-3 0  9996
2 48067  87.8939 325.1441 0001667  76.7979 283.3336 13.13469816250306
ONEWEB-0168             
1 48068U 21025AC  26143.53647580 -.00000311  00000+0 -88682-3 0  9991
2 48068  87.8950 325.1295 0001703  97.7524 262.3798 13.13468654250327
ONEWEB-0173             
1 48069U 21025AD  26143.52801502 -.00000336  00000+0 -95370-3 0  9996
2 48069  87.8945 325.1347 0001461  99.1564 260.9730 13.13468813250564
ONEWEB-0171             
1 48070U 21025AE  26143.48909044  .00000314  00000+0  82355-3 0  9996
2 48070  87.8940 325.1513 0001708  88.6404 271.4921 13.13468829250371
ONEWEB-0172             
1 48071U 21025AF  26143.54495319 -.00000099  00000+0 -30511-3 0  9998
2 48071  87.8947 325.1286 0001606  91.8172 268.3141 13.13469811251272
ONEWEB-0174             
1 48072U 21025AG  26143.52633477 -.00000263  00000+0 -75641-3 0  9992
2 48072  87.8944 325.1320 0001848  95.7158 264.4182 13.13469033250596
ONEWEB-0175             
1 48073U 21025AH  26143.48062888  .00000211  00000+0  54198-3 0  9995
2 48073  87.8950 325.1239 0001556  82.4840 277.6466 13.13469228250249
ONEWEB-0177             
1 48074U 21025AJ  26143.49248016  .00000354  00000+0  93442-3 0  9999
2 48074  87.8943 325.1410 0001770  98.5741 261.5589 13.13469319250439
ONEWEB-0178             
1 48075U 21025AK  26143.51123951  .00000036  00000+0  63016-4 0  9995
2 48075  87.8933 325.1530 0001509  88.1433 271.9868 13.13470545250488
ONEWEB-0108             
1 48076U 21025AL  26143.54663957 -.00000286  00000+0 -81824-3 0  9999
2 48076  87.8952 325.1207 0001979  91.0470 269.0886 13.13470138250415
ONEWEB-0169             
1 48077U 21025AM  26143.50262667  .00000014  00000+0  38334-5 0  9996
2 48077  87.8943 325.1393 0001834  92.5580 267.5759 13.13469999249064
