[{"OBJECT_NAME":"ONEWEB-0159","OBJECT_ID":"2021-025W","EPOCH":"2026-05-23T12:13:32.680128","MEAN_MOTION":13.13469115,"ECCENTRICITY":0.0001602,"INCLINATION":87.8952,"RA_OF_ASC_NODE":325.1288,"ARG_OF_PERICENTER":95.6312,"MEAN_ANOMALY":264.5,"EPHEMERIS_TYPE":0,"CLASSIFICATION_TYPE":"U","NORAD_CAT_ID":48062,"ELEMENT_SET_NO":999,"REV_AT_EPOCH":25036,"BSTAR":0.00024552,"MEAN_MOTION_DOT":1.02e-06,"MEAN_MOTION_DDOT":0.0},{"OBJECT_NAME":"ONEWEB-0164","OBJECT_ID":"2021-025X","EPOCH":"2026-05-23T11:46:43.139712","MEAN_MOTION":13.13469833,"ECCENTRICITY":0.0001817,"INCLINATION":87.895,"RA_OF_ASC_NODE":325.139,"ARG_OF_PERICENTER":88.2892,"MEAN_ANOMALY":271.8445,"EPHEMERIS_TYPE":0,"CLASSIFICATION_TYPE":"U","NORAD_CAT_ID":48063,"ELEMENT_SET_NO":999,"REV_AT_EPOCH":25034,"BSTAR":0.00028763,"MEAN_MOTION_DOT":1.18e-06,"MEAN_MOTION_DDOT":0.0},{"OBJECT_NAME":"ONEWEB-0167","OBJECT_ID":"2021-025Y","EPOCH":"2026-05-23T12:26:57.260256","MEAN_MOTION":13.13470764,"ECCENTRICITY":0.0001151,"INCLINATION":87.8941,"RA_OF_ASC_NODE":325.1453,"ARG_OF_PERICENTER":88.2765,"MEAN_ANOMALY":271.8496,"EPHEMERIS_TYPE":0,"CLASSIFICATION_TYPE":"U","NORAD_CAT_ID":48064,"ELEMENT_SET_NO":999,"REV_AT_EPOCH":25033,"BSTAR":-0.00033821000000000003,"MEAN_MOTION_DOT":-1.11e-06,"MEAN_MOTION_DDOT":0.0},{"OBJECT_NAME":"ONEWEB-0166","OBJECT_ID":"2021-025Z","EPOCH":"2026-05-23T12:59:51.648864","MEAN_MOTION":13.13470196,"ECCENTRICITY":0.0001863,"INCLINATION":87.8951,"RA_OF_ASC_NODE":325.11,"ARG_OF_PERICENTER":97.3666,"MEAN_ANOMALY":262.7675,"EPHEMERIS_TYPE":0,"CLASSIFICATION_TYPE":"U","NORAD_CAT_ID":48065,"ELEMENT_SET_NO":999,"REV_AT_EPOCH":25041,"BSTAR":-0.00053016,"MEAN_MOTION_DOT":-1.81e-06,"MEAN_MOTION_DDOT":0.0},{"OBJECT_NAME":"ONEWEB-0151","OBJECT_ID":"2021-025AA","EPOCH":"2026-05-23T13:02:16.520064","MEAN_MOTION":13.13469068,"ECCENTRICITY":0.0001646,"INCLINATION":87.8939,"RA_OF_ASC_NODE":325.1288,"ARG_OF_PERICENTER":90.0763,"MEAN_ANOMALY":270.0555,"EPHEMERIS_TYPE":0,"CLASSIFICATION_TYPE":"U","NORAD_CAT_ID":48066,"ELEMENT_SET_NO":999,"REV_AT_EPOCH":25035,"BSTAR":-0.0006092199999999999,"MEAN_MOTION_DOT":-2.1e-06,"MEAN_MOTION_DDOT":0.0},{"OBJECT_NAME":"ONEWEB-0170","OBJECT_ID":"2021-025AB","EPOCH":"2026-05-23T11:24:46.578240","MEAN_MOTION":13.13469816,"ECCENTRICITY":0.0001667,"INCLINATION":87.8939,"RA_OF_ASC_NODE":325.1441,"ARG_OF_PERICENTER":76.7979,"MEAN_ANOMALY":283.3336,"EPHEMERIS_TYPE":0,"CLASSIFICATION_TYPE":"U","NORAD_CAT_ID":48067,"ELEMENT_SET_NO":999,"REV_AT_EPOCH":25030,"BSTAR":-0.00048976,"MEAN_MOTION_DOT":-1.66e-06,"MEAN_MOTION_DDOT":0.0},{"OBJECT_NAME":"ONEWEB-0168","OBJECT_ID":"2021-025AC","EPOCH":"2026-05-23T12:52:31.509120","MEAN_MOTION":13.13468654,"ECCENTRICITY":0.0001703,"INCLINATION":87.895,"RA_OF_ASC_NODE":325.1295,"ARG_OF_PERICENTER":97.7524,"MEAN_ANOMALY":262.3798,"EPHEMERIS_TYPE":0,"CLASSIFICATION_TYPE":"U","NORAD_CAT_ID":48068,"ELEMENT_SET_NO":999,"REV_AT_EPOCH":25032,"BSTAR":-0.0008868200000000001,"MEAN_MOTION_DOT":-3.11e-06,"MEAN_MOTION_DDOT":0.0},{"OBJECT_NAME":"ONEWEB-0173","OBJECT_ID":"2021-025AD","EPOCH":"2026-05-23T12:40:20.497728","MEAN_MOTION":13.13468813,"ECCENTRICITY":0.0001461,"INCLINATION":87.8945,"RA_OF_ASC_NODE":325.1347,"ARG_OF_PERICENTER":99.1564,"MEAN_ANOMALY":260.973,"EPHEMERIS_TYPE":0,"CLASSIFICATION_TYPE":"U","NORAD_CAT_ID":48069,"ELEMENT_SET_NO":999,"REV_AT_EPOCH":25056,"BSTAR":-0.0009537,"MEAN_MOTION_DOT":-3.36e-06,"MEAN_MOTION_DDOT":0.0},{"OBJECT_NAME":"ONEWEB-0171","OBJECT_ID":"2021-025AE","EPOCH":"2026-05-23T11:44:17.414016","MEAN_MOTION":13.13468829,"ECCENTRICITY":0.0001708,"INCLINATION":87.894,"RA_OF_ASC_NODE":325.1513,"ARG_OF_PERICENTER":88.6404,"MEAN_ANOMALY":271.4921,"EPHEMERIS_TYPE":0,"CLASSIFICATION_TYPE":"U","NORAD_CAT_ID":48070,"ELEMENT_SET_NO":999,"REV_AT_EPOCH":25037,"BSTAR":0.00082355,"MEAN_MOTION_DOT":3.14e-06,"MEAN_MOTION_DDOT":0.0},{"OBJECT_NAME":"ONEWEB-0172","OBJECT_ID":"2021-025AF","EPOCH":"2026-05-23T13:04:43.955616","MEAN_MOTION":13.13469811,"ECCENTRICITY":0.0001606,"INCLINATION":87.8947,"RA_OF_ASC_NODE":325.1286,"ARG_OF_PERICENTER":91.8172,"MEAN_ANOMALY":268.3141,"EPHEMERIS_TYPE":0,"CLASSIFICATION_TYPE":"U","NORAD_CAT_ID":48071,"ELEMENT_SET_NO":999,"REV_AT_EPOCH":25127,"BSTAR":-0.00030511,"MEAN_MOTION_DOT":-9.9e-07,"MEAN_MOTION_DDOT":0.0},{"OBJECT_NAME":"ONEWEB-0174","OBJECT_ID":"2021-025AG","EPOCH":"2026-05-23T12:37:55.324128","MEAN_MOTION":13.13469033,"ECCENTRICITY":0.0001848,"INCLINATION":87.8944,"RA_OF_ASC_NODE":325.132,"ARG_OF_PERICENTER":95.7158,"MEAN_ANOMALY":264.4182,"EPHEMERIS_TYPE":0,"CLASSIFICATION_TYPE":"U","NORAD_CAT_ID":48072,"ELEMENT_SET_NO":999,"REV_AT_EPOCH":25059,"BSTAR":-0.00075641,"MEAN_MOTION_DOT":-2.63e-06,"MEAN_MOTION_DDOT":0.0},{"OBJECT_NAME":"ONEWEB-0175","OBJECT_ID":"2021-025AH","EPOCH":"2026-05-23T11:32:06.335232","MEAN_MOTION":13.13469228,"ECCENTRICITY":0.0001556,"INCLINATION":87.895,"RA_OF_ASC_NODE":325.1239,"ARG_OF_PERICENTER":82.484,"MEAN_ANOMALY":277.6466,"EPHEMERIS_TYPE":0,"CLASSIFICATION_TYPE":"U","NORAD_CAT_ID":48073,"ELEMENT_SET_NO":999,"REV_AT_EPOCH":25024,"BSTAR":0.0005419800000000001,"MEAN_MOTION_DOT":2.11e-06,"MEAN_MOTION_DDOT":0.0},{"OBJECT_NAME":"ONEWEB-0177","OBJECT_ID":"2021-025AJ","EPOCH":"2026-05-23T11:49:10.285824","MEAN_MOTION":13.13469319,"ECCENTRICITY":0.000177,"INCLINATION":87.8943,"RA_OF_ASC_NODE":325.141,"ARG_OF_PERICENTER":98.5741,"MEAN_ANOMALY":261.5589,"EPHEMERIS_TYPE":0,"CLASSIFICATION_TYPE":"U","NORAD_CAT_ID":48074,"ELEMENT_SET_NO":999,"REV_AT_EPOCH":25043,"BSTAR":0.00093442,"MEAN_MOTION_DOT":3.54e-06,"MEAN_MOTION_DDOT":0.0},{"OBJECT_NAME":"ONEWEB-0178","OBJECT_ID":"2021-025AK","EPOCH":"2026-05-23T12:16:11.093664","MEAN_MOTION":13.13470545,"ECCENTRICITY":0.0001509,"INCLINATION":87.8933,"RA_OF_ASC_NODE":325.153,"ARG_OF_PERICENTER":88.1433,"MEAN_ANOMALY":271.9868,"EPHEMERIS_TYPE":0,"CLASSIFICATION_TYPE":"U","NORAD_CAT_ID":48075,"ELEMENT_SET_NO":999,"REV_AT_EPOCH":25048,"BSTAR":6.301600000000001e-05,"MEAN_MOTION_DOT":3.6e-07,"MEAN_MOTION_DDOT":0.0},{"OBJECT_NAME":"ONEWEB-0108","OBJECT_ID":"2021-025AL","EPOCH":"2026-05-23T13:07:09.658848","MEAN_MOTION":13.13470138,"ECCENTRICITY":0.0001979,"INCLINATION":87.8952,"RA_OF_ASC_NODE":325.1207,"ARG_OF_PERICENTER":91.047,"MEAN_ANOMALY":269.0886,"EPHEMERIS_TYPE":0,"CLASSIFICATION_TYPE":"U","NORAD_CAT_ID":48076,"ELEMENT_SET_NO":999,"REV_AT_EPOCH":25041,"BSTAR":-0.00081824,"MEAN_MOTION_DOT":-2.86e-06,"MEAN_MOTION_DDOT":0.0},{"OBJECT_NAME":"ONEWEB-0169","OBJECT_ID":"2021-025AM","EPOCH":"2026-05-23T12:03:46.944288","MEAN_MOTION":13.13469999,"ECCENTRICITY":0.0001834,"INCLINATION":87.8943,"RA_OF_ASC_NODE":325.1393,"ARG_OF_PERICENTER":92.558,"MEAN_ANOMALY":267.5759,"EPHEMERIS_TYPE":0,"CLASSIFICATION_TYPE":"U","NORAD_CAT_ID":48077,"ELEMENT_SET_NO":999,"REV_AT_EPOCH":24906,"BSTAR":3.8334000000000004e-06,"MEAN_MOTION_DOT":1.4e-07,"MEAN_MOTION_DDOT":0.0}]